H1 CPF 01  gfz 2021 12 15 01  8491 terrasarx 
H2 0702601  6201 31698    2021 12 15 00 59 42 2021 12 20 00 00 42   120 1 1  0 0 0
H9
10 0 59564  49662.000000  0    2174031.851   5419211.942  -3663924.390
10 0 59564  49782.000000  0    2512074.598   5741210.987  -2870203.161
10 0 59564  49902.000000  0    2811044.649   5957568.719  -2026103.265
10 0 59564  50022.000000  0    3063810.130   6065164.883  -1146409.421
10 0 59564  50142.000000  0    3264007.144   6062904.199   -246561.593
10 0 59564  50262.000000  0    3406191.275   5951728.493    657621.744
10 0 59564  50382.000000  0    3485972.172   5734587.692   1550228.626
10 0 59564  50502.000000  0    3500128.224   5416371.345   2415541.439
10 0 59564  50622.000000  0    3446696.940   5003801.591   3238322.419
10 0 59564  50742.000000  0    3325039.867   4505287.965   4004089.639
10 0 59564  50862.000000  0    3135880.749   3930751.225   4699376.165
10 0 59564  50982.000000  0    2881312.288   3291418.974   5311971.203
10 0 59564  51102.000000  0    2564774.552   2599597.717   5831131.379
10 0 59564  51222.000000  0    2191009.116   1868430.864   6247764.204
10 0 59564  51342.000000  0    1765986.442   1111644.353   6554583.000
10 0 59564  51462.000000  0    1296807.499    343285.710   6746227.434
10 0 59564  51582.000000  0     791583.342   -422535.993   6819350.877
10 0 59564  51702.000000  0     259294.553  -1171908.567   6772676.800
10 0 59564  51822.000000  0    -290368.655  -1891369.679   6607019.694
10 0 59564  51942.000000  0    -847182.863  -2568148.604   6325271.237
10 0 59564  52062.000000  0   -1400580.451  -3190393.231   5932351.409
10 0 59564  52182.000000  0   -1939847.249  -3747378.357   5435127.670
10 0 59564  52302.000000  0   -2454329.692  -4229694.349   4842303.224
10 0 59564  52422.000000  0   -2933647.925  -4629412.733   4164271.751
10 0 59564  52542.000000  0   -3367908.540  -4940223.463   3412938.853
10 0 59564  52662.000000  0   -3747910.727  -5157540.613   2601513.726
10 0 59564  52782.000000  0   -4065341.908  -5278574.579   1744276.171
10 0 59564  52902.000000  0   -4312959.933  -5302369.014    856321.520
10 0 59564  53022.000000  0   -4484755.973  -5229800.326    -46711.587
10 0 59564  53142.000000  0   -4576094.168  -5063540.286   -948924.679
10 0 59564  53262.000000  0   -4583823.909  -4807982.000  -1834449.113
10 0 59564  53382.000000  0   -4506361.062  -4469130.234  -2687734.237
10 0 59564  53502.000000  0   -4343736.708  -4054459.989  -3493826.485
10 0 59564  53622.000000  0   -4097612.935  -3572748.499  -4238633.697
10 0 59564  53742.000000  0   -3771266.308  -3033885.289  -4909170.217
10 0 59564  53862.000000  0   -3369539.713  -2448664.434  -5493778.624
10 0 59564  53982.000000  0   -2898764.313  -1828564.858  -5982324.018
10 0 59564  54102.000000  0   -2366654.478  -1185523.487  -6366359.851
10 0 59564  54222.000000  0   -1782176.626   -531705.363  -6639263.008
10 0 59564  54342.000000  0   -1155395.663    120724.126  -6796335.828
10 0 59564  54462.000000  0    -497303.563    759820.238  -6834877.098
10 0 59564  54582.000000  0     180369.586   1374071.994  -6754223.698
10 0 59564  54702.000000  0     865358.594   1952603.641  -6555760.935
10 0 59564  54822.000000  0    1545080.291   2485363.505  -6242903.570
10 0 59564  54942.000000  0    2206860.178   2963296.794  -5821042.993
10 0 59564  55062.000000  0    2838165.231   3378499.671  -5297463.127
10 0 59564  55182.000000  0    3426838.726   3724351.473  -4681225.682
10 0 59564  55302.000000  0    3961335.153   3995625.230  -3983025.218
10 0 59564  55422.000000  0    4430950.148   4188572.209  -3215013.300
10 0 59564  55542.000000  0    4826040.146   4300978.274  -2390593.423
10 0 59564  55662.000000  0    5138225.337   4332189.982  -1524190.434
10 0 59564  55782.000000  0    5360572.627   4283109.942   -630997.791
10 0 59564  55902.000000  0    5487751.646   4156160.602    273292.795
10 0 59564  56022.000000  0    5516161.058   3955217.852   1172772.797
10 0 59564  56142.000000  0    5444021.983   3685514.120   2051605.006
10 0 59564  56262.000000  0    5271434.316   3353513.359   2894311.476
10 0 59564  56382.000000  0    5000393.744   2966762.442   3686054.660
10 0 59564  56502.000000  0    4634770.092   2533721.592   4412905.175
10 0 59564  56622.000000  0    4180248.015   2063578.210   5062088.434
10 0 59564  56742.000000  0    3644233.668   1566052.301   5622210.380
10 0 59564  56862.000000  0    3035724.889   1051193.567   6083455.640
10 0 59564  56982.000000  0    2365152.748    529176.408   6437752.703
10 0 59564  57102.000000  0    1644198.402     10099.733   6678907.758
10 0 59564  57222.000000  0     885587.344   -496207.083   6802708.847
10 0 59564  57342.000000  0     102862.424   -980370.269   6806995.612
10 0 59564  57462.000000  0    -689858.379  -1433644.572   6691693.673
10 0 59564  57582.000000  0   -1478136.084  -1848071.185   6458815.069
10 0 59564  57702.000000  0   -2247471.974  -2216617.139   6112423.931
10 0 59564  57822.000000  0   -2983572.120  -2533294.448   5658571.568
10 0 59564  57942.000000  0   -3672615.897  -2793260.291   5105199.482
10 0 59564  58062.000000  0   -4301520.811  -2992893.579   4462004.996
10 0 59564  58182.000000  0   -4858196.026  -3129845.991   3740275.196
10 0 59564  58302.000000  0   -5331780.951  -3203066.615   2952691.969
10 0 59564  58422.000000  0   -5712864.616  -3212800.613   2113110.856
10 0 59564  58542.000000  0   -5993680.648  -3160561.735   1236314.717
10 0 59564  58662.000000  0   -6168270.730  -3049077.413    337746.978
10 0 59564  58782.000000  0   -6232612.909  -2882207.985   -566767.780
10 0 59564  58902.000000  0   -6184712.157  -2664843.056  -1461311.997
10 0 59564  59022.000000  0   -6024648.082  -2402776.026  -2330165.171
10 0 59564  59142.000000  0   -5754580.184  -2102561.649  -3158086.580
10 0 59564  59262.000000  0   -5378712.543  -1771360.546  -3930586.611
10 0 59564  59382.000000  0   -4903218.208  -1416774.363  -4634180.759
10 0 59564  59502.000000  0   -4336126.887  -1046676.004  -5256622.036
10 0 59564  59622.000000  0   -3687177.857   -669038.434  -5787107.873
10 0 59564  59742.000000  0   -2967642.948   -291766.655  -6216457.568
10 0 59564  59862.000000  0   -2190124.494     77463.713  -6537259.445
10 0 59564  59982.000000  0   -1368331.614    431357.672  -6743987.307
10 0 59564  60102.000000  0    -516839.585    763139.655  -6833085.034
10 0 59564  60222.000000  0     349163.650   1066679.679  -6803020.417
10 0 59564  60342.000000  0    1214140.675   1336602.644  -6654309.014
10 0 59564  60462.000000  0    2062477.534   1568381.576  -6389508.719
10 0 59564  60582.000000  0    2878760.323   1758413.152  -6013180.234
10 0 59564  60702.000000  0    3648051.496   1904073.220  -5531815.674
10 0 59564  60822.000000  0    4356160.690   2003752.179  -4953737.170
10 0 59564  60942.000000  0    4989909.188   2056870.414  -4288965.026
10 0 59564  61062.000000  0    5537381.066   2063872.236  -3549053.782
10 0 59564  61182.000000  0    5988155.063   2026198.184  -2746899.973
10 0 59564  61302.000000  0    6333514.123   1946236.506  -1896523.540
10 0 59564  61422.000000  0    6566625.510   1827254.414  -1012823.520
10 0 59564  61542.000000  0    6682686.182   1673309.575   -111314.645
10 0 59564  61662.000000  0    6679028.902   1489143.954    792151.717
10 0 59564  61782.000000  0    6555185.125   1280063.547   1681672.586
10 0 59564  61902.000000  0    6312907.063   1051806.202   2541582.239
10 0 59564  62022.000000  0    5956142.011    810400.144   3356737.378
10 0 59564  62142.000000  0    5490963.434    562018.418   4112790.898
10 0 59564  62262.000000  0    4925458.222    312832.066   4796448.390
10 0 59564  62382.000000  0    4269577.666     68867.095   5395702.833
10 0 59564  62502.000000  0    3534951.806   -164133.821   5900045.036
10 0 59564  62622.000000  0    2734673.314   -380839.005   6300642.560
10 0 59564  62742.000000  0    1883058.123   -576443.301   6590488.418
10 0 59564  62862.000000  0     995385.395   -746770.043   6764518.587
10 0 59564  62982.000000  0      87619.954   -888357.421   6819695.579
10 0 59564  63102.000000  0    -823875.402   -998527.093   6755056.843
10 0 59564  63222.000000  0   -1722633.752  -1075434.761   6571729.752
10 0 59564  63342.000000  0   -2592379.883  -1118100.890   6272912.476
10 0 59564  63462.000000  0   -3417323.386  -1126421.447   5863822.604
10 0 59564  63582.000000  0   -4182447.923  -1101159.278   5351613.536
10 0 59564  63702.000000  0   -4873790.190  -1043916.760   4745255.790
10 0 59564  63822.000000  0   -5478702.300   -957088.646   4055384.735
10 0 59564  63942.000000  0   -5986091.511   -843796.406   3294116.937
10 0 59564  64062.000000  0   -6386632.228   -707805.356   2474839.398
10 0 59564  64182.000000  0   -6672948.389   -553426.427   1611974.214
10 0 59564  64302.000000  0   -6839759.143   -385404.718    720719.391
10 0 59564  64422.000000  0   -6883981.852   -208798.010   -183226.601
10 0 59564  64542.000000  0   -6804791.306    -28847.643  -1083950.190
10 0 59564  64662.000000  0   -6603632.513    149154.725  -1965612.067
10 0 59564  64782.000000  0   -6284188.665    320000.306  -2812732.065
10 0 59564  64902.000000  0   -5852306.144    478693.722  -3610467.818
10 0 59564  65022.000000  0   -5315874.318    620577.856  -4344878.080
10 0 59564  65142.000000  0   -4684668.218    741449.114  -5003164.601
10 0 59564  65262.000000  0   -3970157.318    837660.649  -5573889.481
10 0 59564  65382.000000  0   -3185286.730    906211.404  -6047164.929
10 0 59564  65502.000000  0   -2344235.180    944818.722  -6414813.153
10 0 59564  65622.000000  0   -1462156.351    951974.591  -6670496.106
10 0 59564  65742.000000  0    -554905.897    926984.669  -6809813.844
10 0 59564  65862.000000  0     361238.582    869988.607  -6830370.485
10 0 59564  65982.000000  0    1269861.201    781962.122  -6731811.936
10 0 59564  66102.000000  0    2154696.069    664700.521  -6515833.448
99
